NORAD_CAT_ID,OBJECT_NAME,OBJECT_TYPE,EPOCH,MEAN_MOTION,ECCENTRICITY,INCLINATION,RA_OF_ASC_NODE,ARG_OF_PERICENTER,MEAN_ANOMALY,BSTAR,MEAN_MOTION_DOT,MEAN_MOTION_DDOT,TLE_LINE0,TLE_LINE1,TLE_LINE2,SEMIMAJOR_AXIS,PERIOD,APOGEE,PERIGEE,DECAYED
53257.0,STARLINK-4144,PAYLOAD,2024-01-05 19:01:49,15.08837437,0.000145,53.2167,158.0594,83.7256,276.3902,3.3721e-05,2.49e-06,0.0,0 STARLINK-4144,1 53257U 22086R   24005.79292923  .00000249  00000-0  33721-4 0  9999,2 53257  53.2167 158.0594 0001450  83.7256 276.3902 15.08837437 81218,6917.888,95.438,540.756,538.75,0.0
53257.0,STARLINK-4144,PAYLOAD,2024-01-06 18:52:35,15.08844146,0.0001418,53.2171,153.5984,88.529,271.5865,8.0009e-05,9.86e-06,0.0,0 STARLINK-4144,1 53257U 22086R   24006.78652515  .00000986  00000-0  80009-4 0  9995,2 53257  53.2171 153.5984 0001418  88.5290 271.5865 15.08844146 81187,6917.868,95.437,540.714,538.752,0.0
53257.0,STARLINK-4144,PAYLOAD,2024-01-07 13:57:14,15.08836124,0.0001403,53.2171,150.0302,87.8095,272.3058,4.4169e-05,4.15e-06,0.0,0 STARLINK-4144,1 53257U 22086R   24007.58141271  .00000415  00000-0  44169-4 0  9990,2 53257  53.2171 150.0302 0001403  87.8095 272.3058 15.08836124 81485,6917.892,95.438,540.728,538.787,0.0
53257.0,STARLINK-4144,PAYLOAD,2024-01-07 18:43:23,15.08842165,0.0001423,53.2172,149.1389,79.5293,280.586,0.00010037,1.31e-05,0.0,0 STARLINK-4144,1 53257U 22086R   24007.78012806  .00001310  00000-0  10037-3 0  9994,2 53257  53.2172 149.1389 0001423  79.5293 280.5860 15.08842165 81338,6917.874,95.437,540.723,538.754,0.0
53257.0,STARLINK-4144,PAYLOAD,2024-01-08 13:48:00,15.08847046,0.0001408,53.2169,145.5722,83.7638,276.3514,5.6513e-05,6.12e-06,0.0,0 STARLINK-4144,1 53257U 22086R   24008.57500522  .00000612  00000-0  56513-4 0  9993,2 53257  53.2169 145.5722 0001408  83.7638 276.3514 15.08847046 81633,6917.859,95.437,540.698,538.75,0.0
53257.0,STARLINK-4144,PAYLOAD,2024-01-08 15:23:23,15.08847944,0.0001453,53.217,145.2747,80.1358,279.9798,6.4466e-05,7.38e-06,0.0,0 STARLINK-4144,1 53257U 22086R   24008.64124449  .00000738  00000-0  64466-4 0  9996,2 53257  53.2170 145.2747 0001453  80.1358 279.9798 15.08847944 81640,6917.856,95.437,540.726,538.716,0.0
53257.0,STARLINK-4144,PAYLOAD,2024-01-09 13:38:47,15.08833006,0.0001366,53.2159,141.1135,97.2101,262.9046,0.00014273,1.984e-05,0.0,0 STARLINK-4144,1 53257U 22086R   24009.56860882  .00001984  00000-0  14273-3 0  9990,2 53257  53.2159 141.1135 0001366  97.2101 262.9046 15.08833006 81788,6917.902,95.438,540.712,538.822,0.0
53257.0,STARLINK-4144,PAYLOAD,2024-01-09 18:24:56,15.08844633,0.0001307,53.2158,140.2205,91.2017,268.9124,7.5658e-05,9.17e-06,0.0,0 STARLINK-4144,1 53257U 22086R   24009.76732401  .00000917  00000-0  75658-4 0  9997,2 53257  53.2158 140.2205 0001307  91.2017 268.9124 15.08844633 81635,6917.866,95.437,540.635,538.827,0.0
53257.0,STARLINK-4144,PAYLOAD,2024-01-10 08:43:25,15.08840228,0.0001511,53.2173,137.5396,89.7492,270.3673,-8.761e-05,-1.682e-05,0.0,0 STARLINK-4144,1 53257U 22086R   24010.36349320 -.00001682  00000-0 -87610-4 0  9992,2 53257  53.2173 137.5396 0001511  89.7492 270.3673 15.08840228 81720,6917.88,95.438,540.79,538.699,0.0
53257.0,STARLINK-4144,PAYLOAD,2024-01-10 15:04:57,15.08844423,0.0001368,53.2172,136.3499,102.8188,257.2957,-4.3979e-05,-9.88e-06,0.0,0 STARLINK-4144,1 53257U 22086R   24010.62844721 -.00000988  00000-0 -43979-4 0  9994,2 53257  53.2172 136.3499 0001368 102.8188 257.2957 15.08844423 81763,6917.867,95.437,540.678,538.786,0.0
53257.0,STARLINK-4144,PAYLOAD,2024-01-11 14:55:44,15.08846624,0.0001408,53.2177,131.8891,105.1545,254.9603,8.3473e-05,1.041e-05,0.0,0 STARLINK-4144,1 53257U 22086R   24011.62204330  .00001041  00000-0  83473-4 0  9993,2 53257  53.2177 131.8891 0001408 105.1545 254.9603 15.08846624 82096,6917.86,95.437,540.699,538.751,0.0
53257.0,STARLINK-4144,PAYLOAD,2024-01-12 11:35:46,15.08835128,0.0001445,53.2174,128.0258,106.5685,253.5466,2.3591e-05,8.7e-07,0.0,0 STARLINK-4144,1 53257U 22086R   24012.48317610  .00000087  00000-0  23591-4 0  9998,2 53257  53.2174 128.0258 0001445 106.5685 253.5466 15.08835128 82043,6917.895,95.438,540.76,538.761,0.0
53257.0,STARLINK-4144,PAYLOAD,2024-01-12 13:11:09,15.08835601,0.0001421,53.2177,127.7287,103.1562,256.9589,2.6862e-05,1.4e-06,0.0,0 STARLINK-4144,1 53257U 22086R   24012.54941616  .00000140  00000-0  26862-4 0  9998,2 53257  53.2177 127.7287 0001421 103.1562 256.9589 15.08835601 82235,6917.894,95.438,540.742,538.776,0.0
53257.0,STARLINK-4144,PAYLOAD,2024-01-13 11:26:33,15.08849456,0.000165,53.2189,123.5667,120.4844,239.6311,-7.5693e-05,-1.493e-05,0.0,0 STARLINK-4144,1 53257U 22086R   24013.47677249 -.00001493  00000-0 -75693-4 0  9999,2 53257  53.2189 123.5667 0001650 120.4844 239.6311 15.08849456 82192,6917.851,95.437,540.858,538.575,0.0
53257.0,STARLINK-4144,PAYLOAD,2024-01-13 14:37:19,15.08850858,0.0001244,53.2175,122.9723,79.56,280.5533,2.4353e-05,1e-06,0.0,0 STARLINK-4144,1 53257U 22086R   24013.60925056  .00000100  00000-0  24353-4 0  9995,2 53257  53.2175 122.9723 0001244  79.5600 280.5533 15.08850858 82397,6917.847,95.437,540.573,538.852,0.0
53257.0,STARLINK-4144,PAYLOAD,2024-01-14 11:17:20,15.08839488,0.0001765,53.2158,119.1048,103.4767,256.6422,0.00011275,1.507e-05,0.0,0 STARLINK-4144,1 53257U 22086R   24014.47037725  .00001507  00000-0  11275-3 0  9998,2 53257  53.2158 119.1048 0001765 103.4767 256.6422 15.08839488 82347,6917.882,95.438,540.968,538.526,0.0
53257.0,STARLINK-4144,PAYLOAD,2024-01-14 14:28:07,15.08841167,0.0001575,53.2174,118.5138,80.9164,279.2006,0.00020188,2.926e-05,0.0,0 STARLINK-4144,1 53257U 22086R   24014.60285885  .00002926  00000-0  20188-3 0  9994,2 53257  53.2174 118.5138 0001575  80.9164 279.2006 15.08841167 82545,6917.877,95.437,540.831,538.652,0.0
53257.0,STARLINK-4144,PAYLOAD,2024-01-14 16:03:29,15.088452,0.0002031,53.2186,118.2144,123.2843,236.8344,0.00021574,3.148e-05,0.0,0 STARLINK-4144,1 53257U 22086R   24014.66909451  .00003148  00000-0  21574-3 0  9999,2 53257  53.2186 118.2144 0002031 123.2843 236.8344 15.08845200 82552,6917.864,95.437,541.135,538.324,0.0
53257.0,STARLINK-4144,PAYLOAD,2024-01-15 12:43:30,15.08848793,0.0001606,53.2172,114.3477,89.8947,270.2229,0.00011257,1.504e-05,0.0,0 STARLINK-4144,1 53257U 22086R   24015.53021298  .00001504  00000-0  11257-3 0  9991,2 53257  53.2172 114.3477 0001606  89.8947 270.2229 15.08848793 82680,6917.854,95.437,540.83,538.608,0.0
53257.0,STARLINK-4144,PAYLOAD,2024-01-16 12:34:18,15.08838746,0.0001512,53.2171,109.8861,100.4624,259.6539,-2.6286e-05,-7.06e-06,0.0,0 STARLINK-4144,1 53257U 22086R   24016.52382069 -.00000706  00000-0 -26286-4 0  9991,2 53257  53.2171 109.8861 0001512 100.4624 259.6539 15.08838746 82652,6917.884,95.438,540.795,538.703,0.0
53257.0,STARLINK-4144,PAYLOAD,2024-01-16 14:09:41,15.08839322,0.0001482,53.2169,109.5883,94.177,265.9392,-1.7161e-05,-5.61e-06,0.0,0 STARLINK-4144,1 53257U 22086R   24016.59006061 -.00000561  00000-0 -17161-4 0  9994,2 53257  53.2169 109.5883 0001482  94.1770 265.9392 15.08839322 82846,6917.882,95.438,540.773,538.722,0.0
53257.0,STARLINK-4144,PAYLOAD,2024-01-17 12:25:04,15.08849007,0.0001684,53.2181,105.4243,81.3063,278.812,8.126e-05,1.006e-05,0.0,0 STARLINK-4144,1 53257U 22086R   24017.51741848  .00001006  00000-0  81260-4 0  9990,2 53257  53.2181 105.4243 0001684  81.3063 278.8120 15.08849007 82980,6917.853,95.437,540.883,538.553,0.0
53257.0,STARLINK-4144,PAYLOAD,2024-01-18 12:15:52,15.08843161,0.0001484,53.2172,100.9646,90.6712,269.445,0.00011871,1.602e-05,0.0,0 STARLINK-4144,1 53257U 22086R   24018.51102060  .00001602  00000-0  11871-3 0  9990,2 53257  53.2172 100.9646 0001484  90.6712 269.4450 15.08843161 82953,6917.871,95.437,540.762,538.709,0.0
53257.0,STARLINK-4144,PAYLOAD,2024-01-19 12:06:38,15.08851891,0.0001582,53.2173,96.5047,81.2753,278.8418,8.8416e-05,1.12e-05,0.0,0 STARLINK-4144,1 53257U 22086R   24019.50461480  .00001120  00000-0  88416-4 0  9999,2 53257  53.2173  96.5047 0001582  81.2753 278.8418 15.08851891 83283,6917.844,95.437,540.803,538.615,0.0
53257.0,STARLINK-4144,PAYLOAD,2024-01-20 10:22:03,15.08838548,0.0001591,53.2178,92.341,103.0496,257.0674,-2.7251e-05,-7.22e-06,0.0,0 STARLINK-4144,1 53257U 22086R   24020.43198093 -.00000722  00000-0 -27251-4 0  9999,2 53257  53.2178  92.3410 0001591 103.0496 257.0674 15.08838548 83246,6917.885,95.438,540.85,538.649,0.0
53257.0,STARLINK-4144,PAYLOAD,2024-01-20 15:08:12,15.08838093,0.0001497,53.2173,91.4499,96.856,263.2603,7.5863e-06,-1.67e-06,0.0,0 STARLINK-4144,1 53257U 22086R   24020.63070221 -.00000167  00000-0  75863-5 0  9998,2 53257  53.2173  91.4499 0001497  96.8560 263.2603 15.08838093 83453,6917.886,95.438,540.787,538.716,0.0
53257.0,STARLINK-4144,PAYLOAD,2024-01-21 13:23:36,15.08847423,0.0001504,53.2186,87.2847,91.9033,268.2131,8.105e-05,1.002e-05,0.0,0 STARLINK-4144,1 53257U 22086R   24021.55806126  .00001002  00000-0  81050-4 0  9993,2 53257  53.2186  87.2847 0001504  91.9033 268.2131 15.08847423 83411,6917.858,95.437,540.763,538.682,0.0
53257.0,STARLINK-4144,PAYLOAD,2024-01-21 22:55:55,15.08833784,0.0001085,53.2179,85.5035,113.668,246.4426,7.7505e-05,9.46e-06,0.0,0 STARLINK-4144,1 53257U 22086R   24021.95550806  .00000946  00000-0  77505-4 0  9994,2 53257  53.2179  85.5035 0001085 113.6680 246.4426 15.08833784 83473,6917.899,95.438,540.515,539.014,0.0
53257.0,STARLINK-4144,PAYLOAD,2024-01-22 11:39:00,15.08845466,0.0001288,53.2173,83.1285,80.7658,279.348,7.0859e-05,8.4e-06,0.0,0 STARLINK-4144,1 53257U 22086R   24022.48542377  .00000840  00000-0  70859-4 0  9995,2 53257  53.2173  83.1285 0001288  80.7658 279.3480 15.08845466 83556,6917.864,95.437,540.62,538.838,0.0
53257.0,STARLINK-4144,PAYLOAD,2024-01-22 22:46:42,15.08839327,0.0001689,53.2182,81.049,75.8508,284.2672,0.00012995,1.781e-05,0.0,0 STARLINK-4144,1 53257U 22086R   24022.94910769  .00001781  00000-0  12995-3 0  9991,2 53257  53.2182  81.0490 0001689  75.8508 284.2672 15.08839327 83620,6917.882,95.438,540.916,538.579,0.0
